start=new Date('2022-01-03T00:00:00.000Z').valueOf();
sats=[{"MEAN_MOTION_DOT":"0.00000676","ECCENTRICITY":"0.00021410","BSTAR":"0.00006428800000","OBJECT_TYPE":"PAYLOAD","PERIAPSIS":"545.756","ELEMENT_SET_NO":"999","EPHEMERIS_TYPE":"0","REF_FRAME":"TEME","NORAD_CAT_ID":"48125","DECAY_DATE":null,"EPOCH":"2022-01-02T16:00:13.615200","OBJECT_ID":"2021-027AK","PERIOD":"95.593","SEMIMAJOR_AXIS":"6925.373","RA_OF_ASC_NODE":"186.6933","TIME_SYSTEM":"UTC","ARG_OF_PERICENTER":"88.4475","REV_AT_EPOCH":"4226","MEAN_MOTION_DDOT":"0.0000000000000","CLASSIFICATION_TYPE":"U","COUNTRY_CODE":"US","TLE_LINE2":"2 48125  53.0551 186.6933 0002141  88.4475 271.6759 15.06391891 42265","APOAPSIS":"548.721","INCLINATION":"53.0551","MEAN_MOTION":"15.06391891","OBJECT_NAME":"STARLINK-2466","FILE":"3255249","GP_ID":"192943947","CENTER_NAME":"EARTH","RCS_SIZE":"LARGE","TLE_LINE1":"1 48125U 21027AK  22002.66682425  .00000676  00000-0  64288-4 0  9998","SITE":"AFETR","LAUNCH_DATE":"2021-04-07","MEAN_ANOMALY":"271.6759","MEAN_ELEMENT_THEORY":"SGP4"},{"DECAY_DATE":null,"EPOCH":"2022-01-02T15:27:04.479840","OBJECT_ID":"2021-027AL","PERIOD":"95.592","RA_OF_ASC_NODE":"166.7835","SEMIMAJOR_AXIS":"6925.339","TIME_SYSTEM":"UTC","EPHEMERIS_TYPE":"0","REF_FRAME":"TEME","NORAD_CAT_ID":"48126","OBJECT_TYPE":"PAYLOAD","PERIAPSIS":"545.617","ELEMENT_SET_NO":"999","MEAN_MOTION_DOT":"0.00000640","ECCENTRICITY":"0.00022920","BSTAR":"0.00006189400000","TLE_LINE1":"1 48126U 21027AL  22002.64380185  .00000640  00000-0  61894-4 0  9996","SITE":"AFETR","LAUNCH_DATE":"2021-04-07","MEAN_ELEMENT_THEORY":"SGP4","MEAN_ANOMALY":"269.5568","OBJECT_NAME":"STARLINK-2467","FILE":"3255249","GP_ID":"192944198","CENTER_NAME":"EARTH","RCS_SIZE":"LARGE","TLE_LINE2":"2 48126  53.0539 166.7835 0002292  90.5684 269.5568 15.06403048 42548","APOAPSIS":"548.792","INCLINATION":"53.0539","MEAN_MOTION":"15.06403048","ARG_OF_PERICENTER":"90.5684","REV_AT_EPOCH":"4254","MEAN_MOTION_DDOT":"0.0000000000000","CLASSIFICATION_TYPE":"U","COUNTRY_CODE":"US"},{"BSTAR":"0.00011404000000","MEAN_MOTION_DOT":"0.00001417","ECCENTRICITY":"0.00022250","PERIAPSIS":"545.687","OBJECT_TYPE":"PAYLOAD","ELEMENT_SET_NO":"999","EPHEMERIS_TYPE":"0","REF_FRAME":"TEME","NORAD_CAT_ID":"48127","DECAY_DATE":null,"EPOCH":"2022-01-02T16:49:21.501984","OBJECT_ID":"2021-027AM","PERIOD":"95.592","SEMIMAJOR_AXIS":"6925.363","RA_OF_ASC_NODE":"186.5412","TIME_SYSTEM":"UTC","ARG_OF_PERICENTER":"83.8726","REV_AT_EPOCH":"4226","MEAN_MOTION_DDOT":"0.0000000000000","CLASSIFICATION_TYPE":"U","COUNTRY_CODE":"US","TLE_LINE2":"2 48127  53.0554 186.5412 0002225  83.8726 276.2517 15.06395232 42268","APOAPSIS":"548.769","INCLINATION":"53.0554","MEAN_MOTION":"15.06395232","OBJECT_NAME":"STARLINK-2468","GP_ID":"192944948","FILE":"3255249","CENTER_NAME":"EARTH","RCS_SIZE":"LARGE","TLE_LINE1":"1 48127U 21027AM  22002.70094331  .00001417  00000-0  11404-3 0  9993","SITE":"AFETR","LAUNCH_DATE":"2021-04-07","MEAN_ANOMALY":"276.2517","MEAN_ELEMENT_THEORY":"SGP4"},{"CLASSIFICATION_TYPE":"U","COUNTRY_CODE":"US","ARG_OF_PERICENTER":"116.5101","REV_AT_EPOCH":"4320","MEAN_MOTION_DDOT":"0.0000000000000","INCLINATION":"53.0573","MEAN_MOTION":"15.06400114","TLE_LINE2":"2 48128  53.0573 117.5426 0002245 116.5101 243.6118 15.06400114 43208","APOAPSIS":"548.768","CENTER_NAME":"EARTH","RCS_SIZE":"LARGE","OBJECT_NAME":"STARLINK-2469","FILE":"3255248","GP_ID":"192919205","LAUNCH_DATE":"2021-04-07","MEAN_ELEMENT_THEORY":"SGP4","MEAN_ANOMALY":"243.6118","TLE_LINE1":"1 48128U 21027AN  22002.47421176  .00001642  00000-0  12914-3 0  9996","SITE":"AFETR","BSTAR":"0.00012914000000","MEAN_MOTION_DOT":"0.00001642","ECCENTRICITY":"0.00022450","ELEMENT_SET_NO":"999","OBJECT_TYPE":"PAYLOAD","PERIAPSIS":"545.658","EPHEMERIS_TYPE":"0","REF_FRAME":"TEME","NORAD_CAT_ID":"48128","OBJECT_ID":"2021-027AN","SEMIMAJOR_AXIS":"6925.348","PERIOD":"95.592","RA_OF_ASC_NODE":"117.5426","TIME_SYSTEM":"UTC","DECAY_DATE":null,"EPOCH":"2022-01-02T11:22:51.896064"},{"BSTAR":"0.00008307400000","MEAN_MOTION_DOT":"0.00000955","ECCENTRICITY":"0.00021380","ELEMENT_SET_NO":"999","PERIAPSIS":"545.772","OBJECT_TYPE":"PAYLOAD","EPHEMERIS_TYPE":"0","REF_FRAME":"TEME","NORAD_CAT_ID":"48129","OBJECT_ID":"2021-027AP","SEMIMAJOR_AXIS":"6925.388","PERIOD":"95.593","RA_OF_ASC_NODE":"185.9769","TIME_SYSTEM":"UTC","DECAY_DATE":null,"EPOCH":"2022-01-02T19:49:50.128896","CLASSIFICATION_TYPE":"U","COUNTRY_CODE":"US","ARG_OF_PERICENTER":"85.8802","REV_AT_EPOCH":"4228","MEAN_MOTION_DDOT":"0.0000000000000","MEAN_MOTION":"15.06387123","INCLINATION":"53.0553","TLE_LINE2":"2 48129  53.0553 185.9769 0002138  85.8802 274.2431 15.06387123 42282","APOAPSIS":"548.734","CENTER_NAME":"EARTH","RCS_SIZE":"LARGE","OBJECT_NAME":"STARLINK-2471","GP_ID":"192943447","FILE":"3255249","LAUNCH_DATE":"2021-04-07","MEAN_ELEMENT_THEORY":"SGP4","MEAN_ANOMALY":"274.2431","TLE_LINE1":"1 48129U 21027AP  22002.82627464  .00000955  00000-0  83074-4 0  9996","SITE":"AFETR"},{"TIME_SYSTEM":"UTC","RA_OF_ASC_NODE":"191.0263","PERIOD":"95.593","SEMIMAJOR_AXIS":"6925.377","OBJECT_ID":"2021-027AQ","EPOCH":"2022-01-02T19:34:31.024704","DECAY_DATE":null,"NORAD_CAT_ID":"48130","REF_FRAME":"TEME","EPHEMERIS_TYPE":"0","ELEMENT_SET_NO":"999","OBJECT_TYPE":"PAYLOAD","PERIAPSIS":"545.692","MEAN_MOTION_DOT":"-0.00001467","BSTAR":"-0.00007958600000","ECCENTRICITY":"0.00022380","MEAN_ELEMENT_THEORY":"SGP4","MEAN_ANOMALY":"279.8111","LAUNCH_DATE":"2021-04-07","SITE":"AFETR","TLE_LINE1":"1 48130U 21027AQ  22002.81563686 -.00001467  00000-0 -79586-4 0  9996","RCS_SIZE":"LARGE","CENTER_NAME":"EARTH","FILE":"3255249","GP_ID":"192944699","OBJECT_NAME":"STARLINK-2472","INCLINATION":"53.0535","MEAN_MOTION":"15.06390801","APOAPSIS":"548.792","TLE_LINE2":"2 48130  53.0535 191.0263 0002238  80.3131 279.8111 15.06390801 42213","COUNTRY_CODE":"US","CLASSIFICATION_TYPE":"U","MEAN_MOTION_DDOT":"0.0000000000000","REV_AT_EPOCH":"4221","ARG_OF_PERICENTER":"80.3131"},{"MEAN_MOTION_DOT":"0.00000744","ECCENTRICITY":"0.00025700","BSTAR":"0.00006888200000","ELEMENT_SET_NO":"999","OBJECT_TYPE":"PAYLOAD","PERIAPSIS":"545.422","REF_FRAME":"TEME","NORAD_CAT_ID":"48131","EPHEMERIS_TYPE":"0","PERIOD":"95.592","RA_OF_ASC_NODE":"166.5346","SEMIMAJOR_AXIS":"6925.336","TIME_SYSTEM":"UTC","OBJECT_ID":"2021-027AR","EPOCH":"2022-01-02T16:51:59.247648","DECAY_DATE":null,"COUNTRY_CODE":"US","CLASSIFICATION_TYPE":"U","MEAN_MOTION_DDOT":"0.0000000000000","ARG_OF_PERICENTER":"91.8443","REV_AT_EPOCH":"4254","MEAN_MOTION":"15.06403949","INCLINATION":"53.0534","APOAPSIS":"548.981","TLE_LINE2":"2 48131  53.0534 166.5346 0002570  91.8443 268.2840 15.06403949 42549","RCS_SIZE":"LARGE","CENTER_NAME":"EARTH","FILE":"3255249","GP_ID":"192944448","OBJECT_NAME":"STARLINK-2473","LAUNCH_DATE":"2021-04-07","MEAN_ANOMALY":"268.2840","MEAN_ELEMENT_THEORY":"SGP4","SITE":"AFETR","TLE_LINE1":"1 48131U 21027AR  22002.70276907  .00000744  00000-0  68882-4 0  9994"},{"CENTER_NAME":"EARTH","RCS_SIZE":"LARGE","OBJECT_NAME":"STARLINK-2474","FILE":"3255249","GP_ID":"192943698","LAUNCH_DATE":"2021-04-07","MEAN_ELEMENT_THEORY":"SGP4","MEAN_ANOMALY":"279.3792","TLE_LINE1":"1 48132U 21027AS  22002.74884190  .00000990  00000-0  85382-4 0  9995","SITE":"AFETR","CLASSIFICATION_TYPE":"U","COUNTRY_CODE":"US","ARG_OF_PERICENTER":"80.7473","REV_AT_EPOCH":"4226","MEAN_MOTION_DDOT":"0.0000000000000","MEAN_MOTION":"15.06399472","INCLINATION":"53.0555","TLE_LINE2":"2 48132  53.0555 186.3297 0002441  80.7473 279.3792 15.06399472 42268","APOAPSIS":"548.906","EPHEMERIS_TYPE":"0","REF_FRAME":"TEME","NORAD_CAT_ID":"48132","OBJECT_ID":"2021-027AS","RA_OF_ASC_NODE":"186.3297","PERIOD":"95.592","SEMIMAJOR_AXIS":"6925.350","TIME_SYSTEM":"UTC","DECAY_DATE":null,"EPOCH":"2022-01-02T17:58:19.940160","BSTAR":"0.00008538200000","MEAN_MOTION_DOT":"0.00000990","ECCENTRICITY":"0.00024410","ELEMENT_SET_NO":"999","OBJECT_TYPE":"PAYLOAD","PERIAPSIS":"545.525"},{"OBJECT_TYPE":"PAYLOAD","PERIAPSIS":"545.820","ELEMENT_SET_NO":"999","MEAN_MOTION_DOT":"0.00000638","ECCENTRICITY":"0.00020690","BSTAR":"0.00006174600000","EPOCH":"2022-01-02T17:53:03.357600","DECAY_DATE":null,"TIME_SYSTEM":"UTC","RA_OF_ASC_NODE":"186.3458","PERIOD":"95.593","SEMIMAJOR_AXIS":"6925.388","OBJECT_ID":"2021-027AT","NORAD_CAT_ID":"48133","REF_FRAME":"TEME","EPHEMERIS_TYPE":"0","APOAPSIS":"548.685","TLE_LINE2":"2 48133  53.0553 186.3458 0002069  85.0114 275.1111 15.06387262 42276","MEAN_MOTION":"15.06387262","INCLINATION":"53.0553","MEAN_MOTION_DDOT":"0.0000000000000","REV_AT_EPOCH":"4227","ARG_OF_PERICENTER":"85.0114","COUNTRY_CODE":"US","CLASSIFICATION_TYPE":"U","SITE":"AFETR","TLE_LINE1":"1 48133U 21027AT  22002.74517775  .00000638  00000-0  61746-4 0  9995","MEAN_ANOMALY":"275.1111","MEAN_ELEMENT_THEORY":"SGP4","LAUNCH_DATE":"2021-04-07","GP_ID":"192943948","FILE":"3255249","OBJECT_NAME":"STARLINK-2475","RCS_SIZE":"LARGE","CENTER_NAME":"EARTH"},{"TLE_LINE2":"2 48134  53.0552 186.1110 0002425  84.7340 275.3925 15.06398624 42271","APOAPSIS":"548.897","MEAN_MOTION":"15.06398624","INCLINATION":"53.0552","ARG_OF_PERICENTER":"84.7340","REV_AT_EPOCH":"4227","MEAN_MOTION_DDOT":"0.0000000000000","CLASSIFICATION_TYPE":"U","COUNTRY_CODE":"US","TLE_LINE1":"1 48134U 21027AU  22002.79676814  .00000510  00000-0  53156-4 0  9996","SITE":"AFETR","LAUNCH_DATE":"2021-04-07","MEAN_ANOMALY":"275.3925","MEAN_ELEMENT_THEORY":"SGP4","OBJECT_NAME":"STARLINK-2476","GP_ID":"192944199","FILE":"3255249","CENTER_NAME":"EARTH","RCS_SIZE":"LARGE","OBJECT_TYPE":"PAYLOAD","PERIAPSIS":"545.538","ELEMENT_SET_NO":"999","ECCENTRICITY":"0.00024250","MEAN_MOTION_DOT":"0.00000510","BSTAR":"0.00005315600000","DECAY_DATE":null,"EPOCH":"2022-01-02T19:07:20.767296","OBJECT_ID":"2021-027AU","PERIOD":"95.592","SEMIMAJOR_AXIS":"6925.353","RA_OF_ASC_NODE":"186.1110","TIME_SYSTEM":"UTC","EPHEMERIS_TYPE":"0","REF_FRAME":"TEME","NORAD_CAT_ID":"48134"}];
